GLOBALSTAR M068         
1 32266U 07048D   25123.61423236 -.00000066  00000+0  21039-3 0  9998
2 32266  51.9883  78.1267 0001420  40.0399 131.1699 12.62822397811921
GLOBALSTAR M079         
1 37188U 10054A   25123.60016420 -.00000074  00000+0  16483-3 0  9995
2 37188  52.0038 275.5150 0000879 133.1586 306.1748 12.62273754670824
GLOBALSTAR M074         
1 37189U 10054B   25123.62726042 -.00000083  00000+0  11422-3 0  9994
2 37189  52.0015 274.7633 0000582 113.7284 327.4722 12.62274657671436
GLOBALSTAR M076         
1 37190U 10054C   25123.57312025 -.00000067  00000+0  20352-3 0  9996
2 37190  52.0027 275.0929 0000577 134.3055 302.2295 12.62262298671144
GLOBALSTAR M077         
1 37191U 10054D   25123.65280147 -.00000140  00000+0 -20144-3 0  9997
2 37191  52.0073 231.6959 0000516 130.1615   7.7881 12.62267579671523
GLOBALSTAR M075         
1 37192U 10054E   25123.57786059 -.00000080  00000+0  13156-3 0  9999
2 37192  51.9957 317.3623 0000761  95.5990 301.8772 12.62264310670217
GLOBALSTAR M073         
1 37193U 10054F   25123.57272823 -.00000074  00000+0  16419-3 0  9997
2 37193  52.0056 231.1631 0000551 143.7232 229.2419 12.62271109672200
GLOBALSTAR M083         
1 37739U 11033A   25123.85832301 -.00000092  00000+0  67110-4 0  9990
2 37739  51.9841 179.0861 0000439 131.4899  40.3426 12.62263784641610
GLOBALSTAR M088         
1 37740U 11033B   25123.87882150 -.00000100  00000+0  23251-4 0  9999
2 37740  51.9728  84.5467 0000450  62.5747 323.5869 12.62265908637091
GLOBALSTAR M091         
1 37741U 11033C   25123.52810228 -.00000082  00000+0  11940-3 0  9999
2 37741  52.0016  49.0923 0000791  81.4119  89.4226 12.62267518637542
GLOBALSTAR M085         
1 37742U 11033D   25123.64123253 -.00000077  00000+0  14969-3 0  9996
2 37742  51.9891 359.8279 0000924  92.7552 292.6697 12.62268095638072
GLOBALSTAR M081         
1 37743U 11033E   25123.58944520 -.00000069  00000+0  19557-3 0  9997
2 37743  51.9984   2.7457 0000737  98.3679 291.0720 12.62263372638211
GLOBALSTAR M089         
1 37744U 11033F   25123.55020126 -.00000073  00000+0  17074-3 0  9999
2 37744  51.9941 317.1014 0000563  89.5951 302.3805 12.62269538639052
GLOBALSTAR M084         
1 38040U 11080A   25123.91090635 -.00000095  00000+0  50541-4 0  9994
2 38040  51.9993 183.2676 0000078 224.2793 306.8368 12.62265806617354
GLOBALSTAR M080         
1 38041U 11080B   25123.56116113 -.00000089  00000+0  80218-4 0  9993
2 38041  52.0045 185.9077 0000676  93.8924  57.3786 12.62262573617157
GLOBALSTAR M082         
1 38042U 11080C   25123.81840425 -.00000106  00000+0 -15069-4 0  9995
2 38042  52.0049 140.5802 0000574  89.2772  81.6196 12.62266030618060
GLOBALSTAR M092         
1 38043U 11080D   25123.59896122 -.00000081  00000+0  12607-3 0  9991
2 38043  52.0081 231.6219 0000507 121.1505 252.3752 12.62263991616322
GLOBALSTAR M090         
1 38044U 11080E   25123.33525819 -.00000103  00000+0  52518-5 0  9998
2 38044  51.9859 135.9161 0000333 100.1331 274.2875 12.62270081617954
GLOBALSTAR M086         
1 38045U 11080F   25123.79203924 -.00000091  00000+0  72533-4 0  9993
2 38045  51.9870 135.0724 0000799 211.6352 319.9068 12.62270371618056
GLOBALSTAR M097         
1 39072U 13005A   25123.22658658 -.00000091  00000+0  73732-4 0  9991
2 39072  52.0062  51.2934 0000540  89.4347 270.6582 12.62271842565131
GLOBALSTAR M093         
1 39073U 13005B   25123.51674710 -.00000091  00000+0  71997-4 0  9992
2 39073  51.9831  43.7836 0000614  85.5650 274.5286 12.62264190565128
GLOBALSTAR M094         
1 39074U 13005C   25123.59601484 -.00000076  00000+0  15627-3 0  9999
2 39074  51.9968 317.8833 0000952 115.7447 244.3518 12.62270574566742
GLOBALSTAR M096         
1 39075U 13005D   25123.60928276 -.00000075  00000+0  15782-3 0  9994
2 39075  52.0100   6.3222 0000916  97.3549 262.7422 12.62270902565666
GLOBALSTAR M078         
1 39076U 13005E   25123.58257078 -.00000108  00000+0 -23316-4 0  9998
2 39076  51.9863  90.9693 0001294  76.0394 284.0616 12.62261614564283
GLOBALSTAR M095         
1 39077U 13005F   25123.60907215 -.00000103  00000+0  33341-5 0  9991
2 39077  51.9791  88.1079 0000817  90.8447 269.2513 12.62269447564142
GLOBALSTAR M087         
1 52888U 22064A   25123.56048339 -.00000081  00000+0  12705-3 0  9993
2 52888  51.9990 229.6626 0000733 128.4779 231.6154 12.62279279139406
